start=new Date('2023-06-06T00:00:00.000Z').valueOf();
sats=[{"MEAN_MOTION_DOT":"0.00009370","CENTER_NAME":"EARTH","INCLINATION":"53.0548","RCS_SIZE":"LARGE","LAUNCH_DATE":"2021-03-11","CLASSIFICATION_TYPE":"U","ELEMENT_SET_NO":"999","GP_ID":"233284159","RA_OF_ASC_NODE":"96.0333","TLE_LINE2":"2 47845  53.0548  96.0333 0001237  89.4347 270.6784 15.06422716124697","MEAN_MOTION":"15.06422716","EPOCH":"2023-06-05T20:09:08.374464","ARG_OF_PERICENTER":"89.4347","DECAY_DATE":null,"TIME_SYSTEM":"UTC","REV_AT_EPOCH":"12469","PERIAPSIS":"546.287","BSTAR":"0.00064670000000","MEAN_ELEMENT_THEORY":"SGP4","REF_FRAME":"TEME","EPHEMERIS_TYPE":"0","FILE":"3925751","OBJECT_TYPE":"PAYLOAD","NORAD_CAT_ID":"47845","OBJECT_ID":"2021-018BL","MEAN_ANOMALY":"270.6784","SEMIMAJOR_AXIS":"6925.279","MEAN_MOTION_DDOT":"0.0000000000000","OBJECT_NAME":"STARLINK-2453","SITE":"AFETR","APOAPSIS":"548.001","COUNTRY_CODE":"US","PERIOD":"95.591","TLE_LINE1":"1 47845U 21018BL  23156.83968026  .00009370  00000-0  64670-3 0  9994","ECCENTRICITY":"0.00012370"},{"BSTAR":"0.00044082000000","REV_AT_EPOCH":"12474","PERIAPSIS":"546.317","OBJECT_TYPE":"PAYLOAD","FILE":"3925751","EPHEMERIS_TYPE":"0","REF_FRAME":"TEME","MEAN_ELEMENT_THEORY":"SGP4","OBJECT_ID":"2021-018BM","NORAD_CAT_ID":"47846","SITE":"AFETR","OBJECT_NAME":"STARLINK-2456","MEAN_MOTION_DDOT":"0.0000000000000","SEMIMAJOR_AXIS":"6925.287","MEAN_ANOMALY":"266.3679","APOAPSIS":"547.986","PERIOD":"95.591","COUNTRY_CODE":"US","TLE_LINE1":"1 47846U 21018BM  23156.83504716  .00006294  00000-0  44082-3 0  9994","ECCENTRICITY":"0.00012050","CENTER_NAME":"EARTH","INCLINATION":"53.0550","MEAN_MOTION_DOT":"0.00006294","CLASSIFICATION_TYPE":"U","LAUNCH_DATE":"2021-03-11","RCS_SIZE":"LARGE","ELEMENT_SET_NO":"999","RA_OF_ASC_NODE":"96.0446","GP_ID":"233283407","TLE_LINE2":"2 47846  53.0550  96.0446 0001205  93.7447 266.3679 15.06420218124746","DECAY_DATE":null,"TIME_SYSTEM":"UTC","ARG_OF_PERICENTER":"93.7447","EPOCH":"2023-06-05T20:02:28.074624","MEAN_MOTION":"15.06420218"},{"REF_FRAME":"TEME","MEAN_ELEMENT_THEORY":"SGP4","FILE":"3925751","OBJECT_TYPE":"PAYLOAD","EPHEMERIS_TYPE":"0","REV_AT_EPOCH":"12405","PERIAPSIS":"546.377","BSTAR":"0.00014092000000","SEMIMAJOR_AXIS":"6925.321","MEAN_MOTION_DDOT":"0.0000000000000","MEAN_ANOMALY":"260.1874","SITE":"AFETR","OBJECT_NAME":"STARLINK-2258","NORAD_CAT_ID":"47860","OBJECT_ID":"2021-021A","PERIOD":"95.592","COUNTRY_CODE":"US","APOAPSIS":"547.996","ECCENTRICITY":"0.00011690","TLE_LINE1":"1 47860U 21021A   23156.90693836  .00001819  00000-0  14092-3 0  9990","RCS_SIZE":"LARGE","CLASSIFICATION_TYPE":"U","LAUNCH_DATE":"2021-03-14","MEAN_MOTION_DOT":"0.00001819","INCLINATION":"53.0542","CENTER_NAME":"EARTH","GP_ID":"233283658","RA_OF_ASC_NODE":"125.7316","ELEMENT_SET_NO":"999","ARG_OF_PERICENTER":"99.9247","EPOCH":"2023-06-05T21:45:59.474304","MEAN_MOTION":"15.06408860","DECAY_DATE":null,"TIME_SYSTEM":"UTC","TLE_LINE2":"2 47860  53.0542 125.7316 0001169  99.9247 260.1874 15.06408860124056"},{"DECAY_DATE":null,"TIME_SYSTEM":"UTC","ARG_OF_PERICENTER":"95.6762","MEAN_MOTION":"15.06399725","EPOCH":"2023-06-05T15:49:43.716864","TLE_LINE2":"2 47861  53.0542 111.8442 0001104  95.6762 264.4353 15.06399725124336","RA_OF_ASC_NODE":"111.8442","GP_ID":"233283910","ELEMENT_SET_NO":"999","CLASSIFICATION_TYPE":"U","LAUNCH_DATE":"2021-03-14","RCS_SIZE":"LARGE","CENTER_NAME":"EARTH","INCLINATION":"53.0542","MEAN_MOTION_DOT":"0.00002378","ECCENTRICITY":"0.00011040","TLE_LINE1":"1 47861U 21021B   23156.65953376  .00002378  00000-0  17849-3 0  9995","PERIOD":"95.592","COUNTRY_CODE":"US","APOAPSIS":"547.979","SITE":"AFETR","OBJECT_NAME":"STARLINK-2280","SEMIMAJOR_AXIS":"6925.349","MEAN_MOTION_DDOT":"0.0000000000000","MEAN_ANOMALY":"264.4353","OBJECT_ID":"2021-021B","NORAD_CAT_ID":"47861","FILE":"3925751","OBJECT_TYPE":"PAYLOAD","EPHEMERIS_TYPE":"0","REF_FRAME":"TEME","MEAN_ELEMENT_THEORY":"SGP4","BSTAR":"0.00017849000000","PERIAPSIS":"546.450","REV_AT_EPOCH":"12433"},{"TLE_LINE2":"2 47862  53.0547 107.2253 0001122  87.0720 273.0397 15.06410921123908","ARG_OF_PERICENTER":"87.0720","EPOCH":"2023-06-05T13:45:39.709728","MEAN_MOTION":"15.06410921","DECAY_DATE":null,"TIME_SYSTEM":"UTC","ELEMENT_SET_NO":"999","GP_ID":"233261443","RA_OF_ASC_NODE":"107.2253","MEAN_MOTION_DOT":"0.00005121","INCLINATION":"53.0547","CENTER_NAME":"EARTH","RCS_SIZE":"LARGE","CLASSIFICATION_TYPE":"U","LAUNCH_DATE":"2021-03-14","ECCENTRICITY":"0.00011220","TLE_LINE1":"1 47862U 21021C   23156.57337627  .00005121  00000-0  36235-3 0  9991","APOAPSIS":"547.957","PERIOD":"95.591","COUNTRY_CODE":"US","NORAD_CAT_ID":"47862","OBJECT_ID":"2021-021C","SEMIMAJOR_AXIS":"6925.315","MEAN_MOTION_DDOT":"0.0000000000000","MEAN_ANOMALY":"273.0397","SITE":"AFETR","OBJECT_NAME":"STARLINK-2291","PERIAPSIS":"546.403","REV_AT_EPOCH":"12390","BSTAR":"0.00036235000000","REF_FRAME":"TEME","MEAN_ELEMENT_THEORY":"SGP4","FILE":"3925695","OBJECT_TYPE":"PAYLOAD","EPHEMERIS_TYPE":"0"},{"TLE_LINE2":"2 47863  53.0548 117.1192 0001105  92.1980 267.9135 15.06402345124250","TIME_SYSTEM":"UTC","DECAY_DATE":null,"ARG_OF_PERICENTER":"92.1980","MEAN_MOTION":"15.06402345","EPOCH":"2023-06-05T14:21:28.743840","ELEMENT_SET_NO":"999","RA_OF_ASC_NODE":"117.1192","GP_ID":"233282909","INCLINATION":"53.0548","CENTER_NAME":"EARTH","MEAN_MOTION_DOT":"0.00002362","CLASSIFICATION_TYPE":"U","LAUNCH_DATE":"2021-03-14","RCS_SIZE":"LARGE","TLE_LINE1":"1 47863U 21021D   23156.59824935  .00002362  00000-0  17740-3 0  9991","ECCENTRICITY":"0.00011050","APOAPSIS":"547.972","PERIOD":"95.592","COUNTRY_CODE":"US","OBJECT_ID":"2021-021D","NORAD_CAT_ID":"47863","SITE":"AFETR","OBJECT_NAME":"STARLINK-2293","SEMIMAJOR_AXIS":"6925.341","MEAN_MOTION_DDOT":"0.0000000000000","MEAN_ANOMALY":"267.9135","BSTAR":"0.00017740000000","PERIAPSIS":"546.441","REV_AT_EPOCH":"12425","FILE":"3925751","OBJECT_TYPE":"PAYLOAD","EPHEMERIS_TYPE":"0","REF_FRAME":"TEME","MEAN_ELEMENT_THEORY":"SGP4"},{"ECCENTRICITY":"0.00010960","TLE_LINE1":"1 47864U 21021E   23156.84245020  .00004542  00000-0  32351-3 0  9999","APOAPSIS":"547.942","COUNTRY_CODE":"US","PERIOD":"95.592","NORAD_CAT_ID":"47864","OBJECT_ID":"2021-021E","MEAN_ANOMALY":"261.8509","SEMIMAJOR_AXIS":"6925.318","MEAN_MOTION_DDOT":"0.0000000000000","OBJECT_NAME":"STARLINK-2304","SITE":"AFETR","PERIAPSIS":"546.424","REV_AT_EPOCH":"12440","BSTAR":"0.00032351000000","MEAN_ELEMENT_THEORY":"SGP4","REF_FRAME":"TEME","EPHEMERIS_TYPE":"0","FILE":"3925751","OBJECT_TYPE":"PAYLOAD","TLE_LINE2":"2 47864  53.0519 106.0632 0001096  98.2604 261.8509 15.06409929124404","EPOCH":"2023-06-05T20:13:07.697280","MEAN_MOTION":"15.06409929","ARG_OF_PERICENTER":"98.2604","DECAY_DATE":null,"TIME_SYSTEM":"UTC","ELEMENT_SET_NO":"999","GP_ID":"233283159","RA_OF_ASC_NODE":"106.0632","MEAN_MOTION_DOT":"0.00004542","CENTER_NAME":"EARTH","INCLINATION":"53.0519","RCS_SIZE":"LARGE","LAUNCH_DATE":"2021-03-14","CLASSIFICATION_TYPE":"U"},{"TLE_LINE1":"1 47865U 21021F   23156.30612345  .00000514  00000-0  53423-4 0  9998","ECCENTRICITY":"0.00012520","APOAPSIS":"548.108","PERIOD":"95.593","COUNTRY_CODE":"US","NORAD_CAT_ID":"47865","OBJECT_ID":"2021-021F","SEMIMAJOR_AXIS":"6925.376","MEAN_MOTION_DDOT":"0.0000000000000","MEAN_ANOMALY":"267.0467","SITE":"AFETR","OBJECT_NAME":"STARLINK-2310","REV_AT_EPOCH":"12431","PERIAPSIS":"546.374","BSTAR":"0.00005342300000","REF_FRAME":"TEME","MEAN_ELEMENT_THEORY":"SGP4","OBJECT_TYPE":"PAYLOAD","FILE":"3925691","EPHEMERIS_TYPE":"0","TLE_LINE2":"2 47865  53.0541 118.4148 0001252  93.0666 267.0467 15.06391073124315","ARG_OF_PERICENTER":"93.0666","EPOCH":"2023-06-05T07:20:49.066080","MEAN_MOTION":"15.06391073","DECAY_DATE":null,"TIME_SYSTEM":"UTC","ELEMENT_SET_NO":"999","GP_ID":"233254949","RA_OF_ASC_NODE":"118.4148","MEAN_MOTION_DOT":"0.00000514","CENTER_NAME":"EARTH","INCLINATION":"53.0541","RCS_SIZE":"LARGE","CLASSIFICATION_TYPE":"U","LAUNCH_DATE":"2021-03-14"},{"RCS_SIZE":"LARGE","LAUNCH_DATE":"2021-03-14","CLASSIFICATION_TYPE":"U","MEAN_MOTION_DOT":"0.00003417","CENTER_NAME":"EARTH","INCLINATION":"53.0533","GP_ID":"233255699","RA_OF_ASC_NODE":"118.9994","ELEMENT_SET_NO":"999","EPOCH":"2023-06-05T04:16:25.003488","MEAN_MOTION":"15.06395287","ARG_OF_PERICENTER":"85.7826","DECAY_DATE":null,"TIME_SYSTEM":"UTC","TLE_LINE2":"2 47866  53.0533 118.9994 0001319  85.7826 274.3314 15.06395287124347","MEAN_ELEMENT_THEORY":"SGP4","REF_FRAME":"TEME","EPHEMERIS_TYPE":"0","FILE":"3925691","OBJECT_TYPE":"PAYLOAD","REV_AT_EPOCH":"12434","PERIAPSIS":"546.315","BSTAR":"0.00024819000000","MEAN_ANOMALY":"274.3314","SEMIMAJOR_AXIS":"6925.363","MEAN_MOTION_DDOT":"0.0000000000000","OBJECT_NAME":"STARLINK-2320","SITE":"AFETR","NORAD_CAT_ID":"47866","OBJECT_ID":"2021-021G","COUNTRY_CODE":"US","PERIOD":"95.592","APOAPSIS":"548.141","ECCENTRICITY":"0.00013190","TLE_LINE1":"1 47866U 21021G   23156.17806717  .00003417  00000-0  24819-3 0  9993"},{"GP_ID":"233283409","RA_OF_ASC_NODE":"106.0496","ELEMENT_SET_NO":"999","ARG_OF_PERICENTER":"90.6551","EPOCH":"2023-06-05T20:02:30.680448","MEAN_MOTION":"15.06399497","DECAY_DATE":null,"TIME_SYSTEM":"UTC","TLE_LINE2":"2 47867  53.0537 106.0496 0000930  90.6551 269.4544 15.06399497124386","RCS_SIZE":"LARGE","CLASSIFICATION_TYPE":"U","LAUNCH_DATE":"2021-03-14","MEAN_MOTION_DOT":"0.00005071","CENTER_NAME":"EARTH","INCLINATION":"53.0537","PERIOD":"95.592","COUNTRY_CODE":"US","APOAPSIS":"547.859","TLE_LINE1":"1 47867U 21021H   23156.83507732  .00005071  00000-0  35905-3 0  9998","ECCENTRICITY":"0.00009300","REF_FRAME":"TEME","MEAN_ELEMENT_THEORY":"SGP4","FILE":"3925751","OBJECT_TYPE":"PAYLOAD","EPHEMERIS_TYPE":"0","PERIAPSIS":"546.571","REV_AT_EPOCH":"12438","BSTAR":"0.00035905000000","SEMIMAJOR_AXIS":"6925.350","MEAN_MOTION_DDOT":"0.0000000000000","MEAN_ANOMALY":"269.4544","SITE":"AFETR","OBJECT_NAME":"STARLINK-2321","NORAD_CAT_ID":"47867","OBJECT_ID":"2021-021H"}];
